[{"OBJECT_NAME":"GRUS-3ALPHA","OBJECT_ID":"2025-135BD","EPOCH":"2026-03-09T23:10:13.111392","MEAN_MOTION":14.92826642,"ECCENTRICITY":0.00023593,"INCLINATION":97.7632,"RA_OF_ASC_NODE":184.4611,"ARG_OF_PERICENTER":350.2474,"MEAN_ANOMALY":9.8699,"EPHEMERIS_TYPE":0,"CLASSIFICATION_TYPE":"U","NORAD_CAT_ID":64579,"ELEMENT_SET_NO":999,"REV_AT_EPOCH":3907,"BSTAR":0.00014972204,"MEAN_MOTION_DOT":1.493e-5,"MEAN_MOTION_DDOT":0},{"OBJECT_NAME":"COSMOS 2251 DEB","OBJECT_ID":"1993-036BEL","EPOCH":"2026-02-23T12:43:37.182144","MEAN_MOTION":14.76968215,"ECCENTRICITY":0.0065484,"INCLINATION":74.0161,"RA_OF_ASC_NODE":2.6562,"ARG_OF_PERICENTER":120.9498,"MEAN_ANOMALY":239.8134,"EPHEMERIS_TYPE":0,"CLASSIFICATION_TYPE":"U","NORAD_CAT_ID":36622,"ELEMENT_SET_NO":999,"REV_AT_EPOCH":67824,"BSTAR":0.00062497,"MEAN_MOTION_DOT":4.528e-5,"MEAN_MOTION_DDOT":0}]
